# Made by eph2tle, compiled Mar  9 2024 12:32:11
# Run at Fri Mar 22 14:39:10 2024
#
#    The following TLEs (Two-Line Elements) were generated by fitting
# a numerically-integrated ephemeris,  based on the orbit given below,
# to the SDP4/SGP4 models.  Each TLE is good for the interval between
# its epoch and the epoch of the subsequent TLE (usually one day).
# The maximum deviation between the numerically integrated ephemerides
# and the TLE-based ephemeris, in kilometers,  is given for each TLE
# as the "worst residual".
#
#    This fitting is done using the 'eph2tle' code packaged with Find_Orb.
# The code has details on how the TLEs were computed :
#
#    https://github.com/Bill-Gray/find_orb/eph2tle.cpp
#
#    Be warned:  the error given is that between the numerically
# integrated ephems and the TLE model.  There will usually be at
# least some additional difference between the ephems and the actual
# motion of the satellite,  especially if the ephemerides are based
# on a short arc.  If the following orbital elements say something
# like "[based on] 10 observations 2015 Jan. 1-13",  and the TLEs
# are for 2015 May,  the extrapolation may be tenuous at best.  If
# your application requires a specific level of accuracy,  you may
# want to contact me;  I can give you some idea as to the fit of the
# underlying data (and possibly TLEs based on newer data).
#
#   You can usually find the underlying observational data,  and the
# fitted orbit,  residuals,  ephemerides,  and sometimes some comments
# about the object,  among the pages listed at
#
#    https://www.projectpluto.com/pluto/mpecs/pseudo.htm
#
#    WARNING:  for this object,  "normal" TLEs cannot be fitted.  (This
# usually means an object with an hyperbolic or nearly-parabolic orbit.)
# For this and similar cases,   an alternative model is used,  in which
# most of the traditional TLE data is replaced by six signed 8-digit hex
# numbers.  These six numbers are a state vector,  numerically integrated
# using a simplified force model.  This is necessary for objects at L2 or
# L1,  and sometimes for objects in high orbits where the SDP4/SGP4 model
# fails.  Some documentation is in 'get_el.cpp' in the source code at
# https://www.github.com/Bill-Gray/sat_code ; look for 'hex' in that file,
# with the actual integration done in 'sdp4.cpp'.  But be aware:  it's my
# own extension,  doesn't work with other code,  and is therefore used
# only when necessary.
#
#    Also,  if you use a TLE outside the "correct" time range (between
# its MJD and that of the next TLE),  all bets are off.  I've carefully
# computed and minimized the worst error over the "correct" time frame,
# but the ephemeris may (or may not) diverge wildly outside of it.
#
# Ephem range: 60355.500000 60690.500000 1.000000
# Created Fri Mar 22 14:39:01 2024
# Ephemeris start: 15 Feb 2024 12:00:00
# Ephemeris end:   15 Jan 2025 12:00:00
# Times are all TDT
# Positions/velocities are in equatorial J2000
# Orbital elements:  2024-030B = NORAD 58964 = Falcon 9-300 Stage 2
#    Perigee 2024 Feb 22.948632 TT = 22:46:01.8 (JD 2460363.448632)
# Epoch 2024 Mar  3.0 TT; AMR 0.0087659 m^2/kg                     Find_Orb
# M   4.641803390                     (J2000 equator)
# n   0.512828936    Peri.  178.441471
# a   0.022302989    Node   322.396187
# e   0.88917839     Incl.   50.734096
# P   1.922/701.975d H   26.60    G   0.15   q 369754.0410km  Q 0.042134325
# 169 of 186 observations 2024 Feb. 15-Mar. 19; mean residual 0".594
#
# 1 NoradU COSPAR   Epoch.epoch     dn/dt/2  d2n/dt2/6 BSTAR    T El# C
# 2 NoradU Inclina RAAscNode Eccent  ArgPeri MeanAno  MeanMotion Rev# C

# Worst residual: 0.42 km
# MJD 60355.500000 (2024 Feb 15 12:00)
2024-030B = NORAD 58964 = Falcon 9-300 Stage 2
1 58964U 24030B   24046.49919926 -0002U7EY +0017V53K +000AD1QQH 22738
2 58964                          -00063C3W +000F6LZD +00065TLL     04

# Worst residual: 0.72 km
# MJD 60356.500000 (2024 Feb 16 12:00)
2024-030B = NORAD 58964 = Falcon 9-300 Stage 2
1 58964U 24030B   24047.49919926 -00199Z5K +003AI4JF +001AYJF8H 22733
2 58964                          -00040ROX +0005L0BP +0003608E     01

# Worst residual: 0.78 km
# MJD 60357.500000 (2024 Feb 17 12:00)
2024-030B = NORAD 58964 = Falcon 9-300 Stage 2
1 58964U 24030B   24048.49919926 -00234ZSC +004B3SWU +001XIDSDH 22731
2 58964                          -0002YTD5 +00035V2O +00025BS4     03

# Worst residual: 1.50 km
# MJD 60358.500000 (2024 Feb 18 12:00)
2024-030B = NORAD 58964 = Falcon 9-300 Stage 2
1 58964U 24030B   24049.49919926 -002PBEMS +004VRM8I +002D0F4HH 22735
2 58964                          -00026WHU +0001PFK1 +0001GZR8     04

# Worst residual: 5.52 km
# MJD 60359.500000 (2024 Feb 19 12:00)
2024-030B = NORAD 58964 = Falcon 9-300 Stage 2
1 58964U 24030B   24050.49919926 -00358VSY +0055L06G +002NB7JWH 22738
2 58964                          -0001HZ9G +0000LQVE +0000XC3F     08

# Worst residual: 155.21 km
# MJD 60360.500000 (2024 Feb 20 12:00)
2024-030B = NORAD 58964 = Falcon 9-300 Stage 2
1 58964U 24030B   24051.49919926 -003F34O0 +0056OM17 +002T6IVFH 22735
2 58964                          -0000R1J1 -0000BSSS +0000FUH9     07

# Worst residual: 2767.90 km
# MJD 60361.500000 (2024 Feb 21 12:00)
2024-030B = NORAD 58964 = Falcon 9-300 Stage 2
1 58964U 24030B   24052.49919926 -003FR28U +0050LBFC +002V1ITNH 22730
2 58964                          +0001LDA1 -0000V89Q -000031CO     09

# Worst residual: 12.34 km
# MJD 60362.500000 (2024 Feb 22 12:00)
2024-030B = NORAD 58964 = Falcon 9-300 Stage 2
1 58964U 24030B   24053.49919926 -0047MVEG +004BXGHW +0017Z0GZH 22733
2 58964                          -00042VKP -0003NLMQ -0006Z26D     00

# Worst residual: 2.82 km
# MJD 60363.500000 (2024 Feb 23 12:00)
2024-030B = NORAD 58964 = Falcon 9-300 Stage 2
1 58964U 24030B   24054.49919926 -00527Z99 +003C30TS -000FVG48H 22732
2 58964                          -0002Y7MM -0004LW2E -0006UVUH     08

# Worst residual: 1.16 km
# MJD 60364.500000 (2024 Feb 24 12:00)
2024-030B = NORAD 58964 = Falcon 9-300 Stage 2
1 58964U 24030B   24055.49919926 -005M8SWY +00256Q4Q -0021QI80H 22734
2 58964                          -0001OTEU -00059D9T -0006HKOG     07

# Worst residual: 0.59 km
# MJD 60365.500000 (2024 Feb 25 12:00)
2024-030B = NORAD 58964 = Falcon 9-300 Stage 2
1 58964U 24030B   24056.49919926 -005VU9BU +000U8OMU -003JCZ9HH 22738
2 58964                          -0000KJ4P -0005JUYW -0005WHM9     00

# Worst residual: 0.31 km
# MJD 60366.500000 (2024 Feb 26 12:00)
2024-030B = NORAD 58964 = Falcon 9-300 Stage 2
1 58964U 24030B   24057.49919926 -005WUJ8B -000HYWHG -004VKBSIH 22733
2 58964                          +0000AK18 -0005KNLP -0005989Q     01

# Worst residual: 0.17 km
# MJD 60367.500000 (2024 Feb 27 12:00)
2024-030B = NORAD 58964 = Falcon 9-300 Stage 2
1 58964U 24030B   24058.49919926 -005RGYB4 -001TN1LD -0062B2QLH 22738
2 58964                          +0000WYUR -0005FZ6I -0004NCK5     06

# Worst residual: 0.18 km
# MJD 60368.500000 (2024 Feb 28 12:00)
2024-030B = NORAD 58964 = Falcon 9-300 Stage 2
1 58964U 24030B   24059.49919926 -005HJV6T -0033U88C -00743TYXH 22735
2 58964                          +0001CRJM -00058RFM -000443VU     01

# Worst residual: 0.28 km
# MJD 60369.500000 (2024 Feb 29 12:00)
2024-030B = NORAD 58964 = Falcon 9-300 Stage 2
1 58964U 24030B   24060.49919926 -0054FMPN -004C6AB2 -0081M96JH 22735
2 58964                          +0001NWQG -00050MGP -0003NL4S     09

# Worst residual: 0.42 km
# MJD 60370.500000 (2024 Mar  1 12:00)
2024-030B = NORAD 58964 = Falcon 9-300 Stage 2
1 58964U 24030B   24061.49919926 -004P1SIG -005IJ2PR -008VGJV9H 22730
2 58964                          +0001VUQX -0004SCMJ -00039GG5     08

# Worst residual: 0.58 km
# MJD 60371.500000 (2024 Mar  2 12:00)
2024-030B = NORAD 58964 = Falcon 9-300 Stage 2
1 58964U 24030B   24062.49919926 -00481FYM -006MX60Y -009M5NF0H 22731
2 58964                          +00021L1T -0004KAN8 -0002XBIB     04

# Worst residual: 0.72 km
# MJD 60372.500000 (2024 Mar  3 12:00)
2024-030B = NORAD 58964 = Falcon 9-300 Stage 2
1 58964U 24030B   24063.49919926 -003PUQK2 -007PF678 -00AA570PH 22738
2 58964                          +00025QRL -0004CLQR -0002MTK9     08

# Worst residual: 0.76 km
# MJD 60373.500000 (2024 Mar  4 12:00)
2024-030B = NORAD 58964 = Falcon 9-300 Stage 2
1 58964U 24030B   24064.49919926 -0036TCF1 -008Q4HU5 -00AVS1B6H 22738
2 58964                          +00028QQ7 -00045BSJ -0002DO2A     06

# Worst residual: 0.55 km
# MJD 60374.500000 (2024 Mar  5 12:00)
2024-030B = NORAD 58964 = Falcon 9-300 Stage 2
1 58964U 24030B   24065.49919926 -002N61RJ -009P4SRG -00BFCQC2H 22739
2 58964                          +0002AUL8 -0003YH9M -00025MDV     05

# Worst residual: 0.74 km
# MJD 60375.500000 (2024 Mar  6 12:00)
2024-030B = NORAD 58964 = Falcon 9-300 Stage 2
1 58964U 24030B   24066.49919926 -00233PMY -00AMJS5F -00BX3YXYH 22732
2 58964                          +0002C8ZN -0003S24G -0001YHL2     08

# Worst residual: 0.68 km
# MJD 60376.500000 (2024 Mar  7 12:00)
2024-030B = NORAD 58964 = Falcon 9-300 Stage 2
1 58964U 24030B   24067.49919926 -001IRTRJ -00BIH4C6 -00CD8YWOH 22736
2 58964                          +0002D2VX -0003M27Q -0001S49Y     06

# Worst residual: 0.39 km
# MJD 60377.500000 (2024 Mar  8 12:00)
2024-030B = NORAD 58964 = Falcon 9-300 Stage 2
1 58964U 24030B   24068.49919926 -000YAT8H -00CD0GIT -00CRXTFPH 22736
2 58964                          +0002DGD6 -0003GHG7 -0001MEF2     07

# Worst residual: 0.36 km
# MJD 60378.500000 (2024 Mar  9 12:00)
2024-030B = NORAD 58964 = Falcon 9-300 Stage 2
1 58964U 24030B   24069.49919926 -000DS5PH -00D69F8T -00D5BRICH 22732
2 58964                          +0002DH54 -0003BBQW -0001H8ZT     09

# Worst residual: 0.22 km
# MJD 60379.500000 (2024 Mar 10 12:00)
2024-030B = NORAD 58964 = Falcon 9-300 Stage 2
1 58964U 24030B   24070.49919926 +0006PIM1 -00DYBLP6 -00DHJF55H 22733
2 58964                          +0002D8ST -00036KU6 -0001CLN9     01

